{
"type": "FeatureCollection",
"name": "aoi",
"crs": { "type": "name", "properties": { "name": "urn:ogc:def:crs:OGC:1.3:CRS84" } },
"features": [
{ "type": "Feature", "properties": { "emsr_id": "EMSR445", "glide_no": "Not Applicable", "area_id": "01", "locality": "Prut", "map_type": "Delineation" }, "geometry": { "type": "Polygon", "coordinates": [ [ [ 26.816092905000058, 48.283733300000044 ], [ 27.020477641000067, 48.185373727000062 ], [ 27.228338134000069, 47.944847002000067 ], [ 27.092451357000069, 47.947364518000015 ], [ 26.920308494000036, 48.151633566000037 ], [ 26.727552973000055, 48.217442915000049 ], [ 26.453640581000055, 48.158367973000054 ], [ 26.113179964000036, 48.162105149000062 ], [ 26.11568643400005, 48.279621652000053 ], [ 26.512373548000024, 48.275169305000077 ], [ 26.685763361000053, 48.285682512000044 ], [ 26.816092905000058, 48.283733300000044 ] ] ] } }
]
}
