{
"type": "FeatureCollection",
"name": "aoi",
"crs": { "type": "name", "properties": { "name": "urn:ogc:def:crs:OGC:1.3:CRS84" } },
"features": [
{ "type": "Feature", "properties": { "emsr_id": "EMSR518", "glide_no": "Not Applicable", "area_id": "01", "locality": "Liege", "map_type": "Delineation" }, "geometry": { "type": "Polygon", "coordinates": [ [ [ 5.698556289000066, 50.769856208000071 ], [ 5.69549672100004, 50.750931259000012 ], [ 5.707749736000039, 50.751945711000069 ], [ 5.721784613000067, 50.755512688000074 ], [ 5.740655592000054, 50.755386698000052 ], [ 5.763590003000047, 50.75017599400006 ], [ 5.793920265000053, 50.74526087800006 ], [ 5.817017147000059, 50.724969207000079 ], [ 5.845913292000034, 50.728152453000057 ], [ 5.88516701900005, 50.738972157000021 ], [ 5.924289743000031, 50.754278716000037 ], [ 5.94846390400005, 50.759609667000056 ], [ 6.025105734000021, 50.735738372000071 ], [ 6.032136165000054, 50.714848627000038 ], [ 6.077047177000054, 50.707858906000062 ], [ 6.120027492000077, 50.698765984000033 ], [ 6.133797472000026, 50.689890198000057 ], [ 6.137337975000036, 50.673426882000058 ], [ 6.074209, 50.647777543000061 ], [ 6.015943628000058, 50.653679062000023 ], [ 5.939145433000022, 50.65092007800007 ], [ 5.876569523000057, 50.628513895000012 ], [ 5.773966726000026, 50.63343627900008 ], [ 5.702376275000063, 50.631614125000048 ], [ 5.655048061000059, 50.649247399000039 ], [ 5.648478199000066, 50.578994730000034 ], [ 5.610752950000062, 50.491144562000038 ], [ 5.580388295000033, 50.460356591000057 ], [ 5.536053052000056, 50.496760875000057 ], [ 5.506227810000041, 50.560402455000016 ], [ 5.543618231000039, 50.661368361000015 ], [ 5.60215781900007, 50.696685906000027 ], [ 5.649412005000045, 50.743862027000027 ], [ 5.636111180000057, 50.813379596000047 ], [ 5.62027695000006, 50.88753641300007 ], [ 5.791130423000027, 51.148926896000027 ], [ 5.826806029000067, 51.157143079000043 ], [ 5.857196068000064, 51.140758135000056 ], [ 5.84234488100003, 51.124167309000029 ], [ 5.84185678600005, 51.099342057000058 ], [ 5.815102933000047, 51.075396814000037 ], [ 5.797266654000055, 51.046542176000059 ], [ 5.786637410000025, 51.008434643000044 ], [ 5.766851785000028, 50.98027848800006 ], [ 5.76287092900003, 50.962094277000048 ], [ 5.753462899000055, 50.93384923900004 ], [ 5.736738234000028, 50.916662958000067 ], [ 5.713576334000037, 50.896825857000067 ], [ 5.696825642000021, 50.881679970000043 ], [ 5.704415825000068, 50.856594843000039 ], [ 5.704729708000058, 50.823887090000028 ], [ 5.704950422000024, 50.796854989000053 ], [ 5.698556289000066, 50.769856208000071 ] ] ] } }
]
}
