{
"type": "FeatureCollection",
"name": "aoi",
"crs": { "type": "name", "properties": { "name": "urn:ogc:def:crs:OGC:1.3:CRS84" } },
"features": [
{ "type": "Feature", "properties": { "name": "Skopje (overview) - fYROM", "act_id": "EMSR174", "obj_type": null }, "geometry": { "type": "Polygon", "coordinates": [ [ [ 21.613092658630851, 42.06211071142986 ], [ 21.616312348572897, 41.942564721955442 ], [ 21.32093511609493, 41.945151982662772 ], [ 21.319690969198636, 42.062718955112906 ], [ 21.613092658630851, 42.06211071142986 ] ] ] } }
]
}
