{
"type": "FeatureCollection",
"name": "aoi",
"crs": { "type": "name", "properties": { "name": "urn:ogc:def:crs:OGC:1.3:CRS84" } },
"features": [
{ "type": "Feature", "properties": { "emsr_id": "EMSR437", "glide_no": null, "area_id": "07", "locality": "Cazaubon", "map_type": "Delineation" }, "geometry": { "type": "Polygon", "coordinates": [ [ [ 0.001277688000073, 43.861087608000041 ], [ -0.251751181999964, 43.861087608000041 ], [ -0.251751181999964, 43.881369161000066 ], [ -0.251749726999947, 43.881369161000066 ], [ -0.251749725999957, 43.881374361000034 ], [ -0.251749720999953, 43.88140680500004 ], [ -0.251749719999964, 43.881411707000026 ], [ -0.251749718999974, 43.881417227000036 ], [ -0.251749705999941, 43.881499461000018 ], [ -0.251749702999973, 43.881516385000054 ], [ -0.251749702999973, 43.881516879000046 ], [ -0.25174968999994, 43.881591832000019 ], [ -0.251749677999953, 43.881666291000037 ], [ -0.251749674999928, 43.881684851000038 ], [ -0.251749643999972, 43.881874018000069 ], [ -0.251749619999941, 43.882023212000028 ], [ -0.25174956099994, 43.88238155800007 ], [ -0.251749550999932, 43.882439764000019 ], [ -0.251749509999968, 43.882689013000046 ], [ -0.251749353999969, 43.883639013000042 ], [ -0.251749344999951, 43.883694338000041 ], [ -0.251749314999927, 43.883878743000025 ], [ -0.25174913099994, 43.88499709000007 ], [ -0.251749121999978, 43.885047655000051 ], [ -0.251748954999925, 43.886066063000037 ], [ -0.251748945999964, 43.886118415000055 ], [ -0.251748762999966, 43.887236759000068 ], [ -0.251748737999947, 43.887389043000034 ], [ -0.251748630999941, 43.88803625700006 ], [ -0.251748457999952, 43.889092737000063 ], [ -0.251748281999937, 43.890158757000052 ], [ -0.25174790899996, 43.892433025000045 ], [ -0.251747793999925, 43.893128312000044 ], [ -0.251747363999925, 43.89574573600003 ], [ -0.251747251999973, 43.896430995000053 ], [ -0.251747222999938, 43.896602364000046 ], [ -0.251746240999978, 43.902579601000063 ], [ -0.251745946999961, 43.904368877000081 ], [ -0.251745074999974, 43.909672220000061 ], [ -0.251744807999955, 43.911297946000047 ], [ -0.251744773999974, 43.911507260000064 ], [ -0.251743997999938, 43.916227635000034 ], [ -0.25174379799995, 43.917446454000057 ], [ -0.251743609999949, 43.918588536000073 ], [ -0.251742708999927, 43.924070920000069 ], [ -0.25174194899995, 43.928696558000063 ], [ -0.251740957999971, 43.934728053000072 ], [ -0.251740155999926, 43.939605922000041 ], [ -0.251739725999926, 43.942223246000019 ], [ -0.251738748999969, 43.948167621000039 ], [ -0.251736889999961, 43.959474773000068 ], [ -0.251733575999936, 43.979640587000056 ], [ -0.251728736999951, 44.009082788000043 ], [ -0.251725704999956, 44.027534542000055 ], [ -0.251723406999929, 44.041516687000062 ], [ -0.234427623999977, 44.041516687000062 ], [ -0.230518367999934, 44.041516687000062 ], [ -0.230021655999963, 44.041516687000062 ], [ -0.228498800999944, 44.041516687000062 ], [ -0.227030533999937, 44.041516687000062 ], [ -0.226611094999953, 44.041516687000062 ], [ -0.226446515999953, 44.041516687000062 ], [ -0.226421597999945, 44.041516687000062 ], [ -0.226421597999945, 44.041520275000032 ], [ 0.001277688000073, 44.041520275000032 ], [ 0.001277688000073, 43.861087608000041 ] ] ] } }
]
}
