{
"type": "FeatureCollection",
"name": "aoi",
"crs": { "type": "name", "properties": { "name": "urn:ogc:def:crs:OGC:1.3:CRS84" } },
"features": [
{ "type": "Feature", "properties": { "name": "Carlisle", "act_id": "EMSR147", "obj_type": null }, "geometry": { "type": "Polygon", "coordinates": [ [ [ -2.67023798845645, 54.974313199551581 ], [ -2.670736670002046, 54.741554304782134 ], [ -3.193617940075616, 54.742275610336101 ], [ -3.192920088917205, 54.977369710862931 ], [ -2.67023798845645, 54.974313199551581 ] ] ] } }
]
}
