{
"type": "FeatureCollection",
"name": "aoi",
"crs": { "type": "name", "properties": { "name": "urn:ogc:def:crs:OGC:1.3:CRS84" } },
"features": [
{ "type": "Feature", "properties": { "emsr_id": "EMSR321", "glide_no": "Not Applicable", "area_id": "01", "locality": "San Lorenzo", "map_type": "Delineation" }, "geometry": { "type": "Polygon", "coordinates": [ [ [ -87.340920311999966, 13.414973116000045 ], [ -87.580078941999943, 13.414973116000045 ], [ -87.580078941999943, 13.605769048000072 ], [ -87.340920311999966, 13.605769048000072 ], [ -87.340920311999966, 13.414973116000045 ] ] ] } }
]
}
