{
"type": "FeatureCollection",
"name": "aoi",
"crs": { "type": "name", "properties": { "name": "urn:ogc:def:crs:OGC:1.3:CRS84" } },
"features": [
{ "type": "Feature", "properties": { "emsr_id": "EMSR279", "glide_no": "Not Applicable", "area_id": "05", "locality": "Zaragoza", "map_type": "Delineation-Monit01" }, "geometry": { "type": "Polygon", "coordinates": [ [ [ -0.501174515999935, 41.385655159000059 ], [ -1.15560070999993, 41.385655159000059 ], [ -1.15560070999993, 41.787318712000058 ], [ -0.501174515999935, 41.787318712000058 ], [ -0.501174515999935, 41.385655159000059 ] ] ] } }
]
}
