{
"type": "FeatureCollection",
"name": "aoi",
"crs": { "type": "name", "properties": { "name": "urn:ogc:def:crs:OGC:1.3:CRS84" } },
"features": [
{ "type": "Feature", "properties": { "emsr_id": "EMSR567", "glide_no": "Not Applicable", "area_id": "08", "locality": "Grafton", "map_type": "Delineation" }, "geometry": { "type": "Polygon", "coordinates": [ [ [ 153.172131828, -29.553123565999961 ], [ 153.139617602000044, -29.575458453999929 ], [ 153.109609256000084, -29.56932302499996 ], [ 153.076475801000015, -29.580798820999981 ], [ 153.05265522000002, -29.60131069299997 ], [ 153.041538784000068, -29.627276287999972 ], [ 153.015663969000116, -29.652858286999962 ], [ 152.989107603000065, -29.66122813 ], [ 152.989531956000036, -29.662528567999978 ], [ 152.990026010000065, -29.665834088999937 ], [ 152.99003024600006, -29.674158033999966 ], [ 152.989189517000085, -29.679102741999944 ], [ 152.987104607000077, -29.685511740999978 ], [ 152.984842762000085, -29.690103978999957 ], [ 152.982012608000105, -29.694449427999935 ], [ 152.97864886, -29.698494681999939 ], [ 152.974792798000067, -29.702190019999932 ], [ 152.970491775000028, -29.705490018 ], [ 152.965798626, -29.708354104999948 ], [ 152.962480314000089, -29.710003699999955 ], [ 152.957263850000118, -29.71206586099995 ], [ 152.953654601000039, -29.71315485099996 ], [ 152.94431549300009, -29.714836028999965 ], [ 152.938597655000052, -29.715113147999936 ], [ 152.927232299000025, -29.714008080999982 ], [ 152.923540709000122, -29.71315485099996 ], [ 152.918163902000032, -29.711434768999936 ], [ 152.909792200000084, -29.707450132999959 ], [ 152.905223576000026, -29.704436554999965 ], [ 152.899779322000057, -29.69976767799994 ], [ 152.897368331000024, -29.697182770999976 ], [ 152.894178175000093, -29.693031731999938 ], [ 152.890779648000034, -29.687066478999945 ], [ 152.887375459000026, -29.675814941999917 ], [ 152.886956095000073, -29.669162447999962 ], [ 152.888435531999988, -29.659263934999949 ], [ 152.891551256000042, -29.65139740199994 ], [ 152.89626821300007, -29.644164717999956 ], [ 152.898569024000068, -29.64150518199995 ], [ 152.903812199000072, -29.636666724999944 ], [ 152.908249024000042, -29.633509925999942 ], [ 152.916442155000027, -29.629261057999951 ], [ 152.923553558000094, -29.62685524199998 ], [ 152.930992759000105, -29.625390459999963 ], [ 152.936689931000018, -29.624929418999951 ], [ 152.940505379000115, -29.624929418999951 ], [ 152.949953121, -29.626002735999979 ], [ 152.96075315500002, -29.629261057999951 ], [ 152.968946287000108, -29.633509925999942 ], [ 152.973383112000079, -29.636666724999944 ], [ 152.977393133000049, -29.640232908999973 ], [ 152.978522075000086, -29.641537934999985 ], [ 152.981798846000061, -29.641139020999969 ], [ 153.013274617000093, -29.592217514999973 ], [ 153.032327279000015, -29.574089014999984 ], [ 153.067030198000111, -29.541978056999945 ], [ 153.082975085000015, -29.512686933999937 ], [ 153.083787448000066, -29.485388526999952 ], [ 153.116149165000024, -29.466094938999966 ], [ 153.137626510000018, -29.452901809999947 ], [ 153.148128938000013, -29.483428594999967 ], [ 153.172131828, -29.553123565999961 ] ] ] } }
]
}
