{
"type": "FeatureCollection",
"name": "aoi",
"crs": { "type": "name", "properties": { "name": "urn:ogc:def:crs:OGC:1.3:CRS84" } },
"features": [
{ "type": "Feature", "properties": { "emsr_id": "EMSR520", "glide_no": "Not Applicable", "area_id": "01", "locality": "Venlo", "map_type": "Delineation" }, "geometry": { "type": "Polygon", "coordinates": [ [ [ 6.011730789000068, 51.207000638000061 ], [ 5.989301968000063, 51.186960046000067 ], [ 5.99669337000006, 51.182951894000041 ], [ 6.000664008000058, 51.175876946000074 ], [ 6.005433433000063, 51.170042656000085 ], [ 6.009128631000066, 51.166330132000041 ], [ 6.009565117000021, 51.159083987000031 ], [ 6.018587786000069, 51.153520301000079 ], [ 6.033297120000043, 51.151616298000079 ], [ 6.046480079000048, 51.154129291000061 ], [ 6.048996888000033, 51.160156261000047 ], [ 6.051200587000038, 51.161431507000039 ], [ 6.076340795000021, 51.166103515000032 ], [ 6.086451310000029, 51.15879232900005 ], [ 6.104383103000032, 51.140037646000053 ], [ 6.106267452000053, 51.137508392000022 ], [ 6.105627537000032, 51.137275696000074 ], [ 6.105113507000055, 51.137023925000044 ], [ 6.104385853000053, 51.136840820000025 ], [ 6.103675843000075, 51.136474610000043 ], [ 6.103105546000052, 51.136375427000075 ], [ 6.102523327000028, 51.136405945000035 ], [ 6.102004052000041, 51.136646270000028 ], [ 6.101586819000032, 51.136680603000052 ], [ 6.100934029000029, 51.136581420000027 ], [ 6.100214005000054, 51.136318207000045 ], [ 6.099751473000026, 51.135963439000086 ], [ 6.099150658000042, 51.135665893000052 ], [ 6.099108219000072, 51.135650635000047 ], [ 6.098316193000072, 51.135387420000015 ], [ 6.097431183000025, 51.135120392000026 ], [ 6.096626282000045, 51.134880066000044 ], [ 6.095976353000026, 51.134750366000041 ], [ 6.092746887000032, 51.134795308000037 ], [ 6.092412472000035, 51.134799957000041 ], [ 6.091868401000055, 51.134975433000072 ], [ 6.09067964600007, 51.132488250000058 ], [ 6.089833260000034, 51.131599426000029 ], [ 6.089718471000025, 51.131334549000016 ], [ 6.089234830000066, 51.130218505000066 ], [ 6.088762760000065, 51.129909516000048 ], [ 6.088353473000041, 51.129774479000048 ], [ 6.086935997000069, 51.129306793000062 ], [ 6.087296009000055, 51.129009246000059 ], [ 6.087609908000046, 51.128924600000062 ], [ 6.087805272000025, 51.128871917000019 ], [ 6.08831262600006, 51.128761292000036 ], [ 6.088706017000049, 51.128540039000029 ], [ 6.088733197000066, 51.128253936000078 ], [ 6.088644028000033, 51.127887725000036 ], [ 6.08840704000005, 51.12775039600006 ], [ 6.087975503000052, 51.12750244100004 ], [ 6.086587430000066, 51.127639771000077 ], [ 6.086289771000054, 51.127415618000029 ], [ 6.085498334000021, 51.126819610000041 ], [ 6.085055918000022, 51.126484751000078 ], [ 6.08440971400006, 51.125995635000038 ], [ 6.086658955000075, 51.125541686000076 ], [ 6.086879253000063, 51.125041961000072 ], [ 6.087061406000032, 51.124629974000065 ], [ 6.084297658000025, 51.124080658000068 ], [ 6.083504677000064, 51.123924255000063 ], [ 6.081991424000023, 51.125463755000048 ], [ 6.081854820000046, 51.125602722000046 ], [ 6.080843449000041, 51.126140594000027 ], [ 6.080026150000037, 51.125099182000035 ], [ 6.079879284000071, 51.124843598000034 ], [ 6.079873870000029, 51.12475817600005 ], [ 6.079862118000052, 51.124572754000035 ], [ 6.080113888000028, 51.123733520000023 ], [ 6.080183507000071, 51.123458862000057 ], [ 6.080446244000029, 51.122203827000078 ], [ 6.07585954700005, 51.121047974000064 ], [ 6.075625897000065, 51.120712280000077 ], [ 6.075663090000035, 51.120532990000072 ], [ 6.075699806000045, 51.12035369900007 ], [ 6.076224328000023, 51.119838715000078 ], [ 6.076161385000034, 51.119461060000042 ], [ 6.07575464300004, 51.119159698000026 ], [ 6.075111866000043, 51.119049072000045 ], [ 6.074541093000049, 51.119014740000054 ], [ 6.073894977000066, 51.118938446000065 ], [ 6.073418141000047, 51.118747711000026 ], [ 6.072932721000028, 51.118442535000035 ], [ 6.072399616000041, 51.118221283000075 ], [ 6.071497917000044, 51.117988586000081 ], [ 6.07140064300006, 51.118000030000076 ], [ 6.070410729000058, 51.118110657000031 ], [ 6.067404271000044, 51.118083954000035 ], [ 6.064469812000026, 51.121527778000022 ], [ 6.069559127000047, 51.13239153500006 ], [ 6.070730332000038, 51.136359062000054 ], [ 6.066022659000054, 51.138386632000049 ], [ 6.052212893000046, 51.140080926000053 ], [ 6.028203622000035, 51.143180690000065 ], [ 6.007705886000053, 51.144471627000023 ], [ 5.997832656000071, 51.146248460000031 ], [ 5.988993163000031, 51.154661728000058 ], [ 5.980796128000065, 51.168388859000054 ], [ 5.982398150000051, 51.174440507000035 ], [ 5.980204585000023, 51.17897468000006 ], [ 5.962025981000068, 51.163052798000066 ], [ 5.948364031000039, 51.156556079000033 ], [ 5.92964304000003, 51.152267102000039 ], [ 5.927466990000028, 51.152268989000056 ], [ 5.913974259000042, 51.147321519000066 ], [ 5.895439843000077, 51.133362387000027 ], [ 5.874251578000042, 51.118310256000029 ], [ 5.881065618000036, 51.132600409000077 ], [ 5.860677703000022, 51.151211849000035 ], [ 5.850013588000023, 51.150461617000076 ], [ 5.840448206000076, 51.149787830000037 ], [ 5.826806029000067, 51.157143079000043 ], [ 5.813154270000041, 51.154000690000025 ], [ 5.814772613000058, 51.155638911000032 ], [ 5.842455725000036, 51.17250374700005 ], [ 5.890497970000069, 51.20172599000005 ], [ 5.89056178900006, 51.20186207100005 ], [ 5.927715094000063, 51.196464929000037 ], [ 5.98825226100007, 51.256969312000074 ], [ 6.014675474000057, 51.289799868000038 ], [ 6.036107109000057, 51.295259065000032 ], [ 6.067940573000044, 51.30585210900005 ], [ 6.085063666000053, 51.312065582000059 ], [ 6.101850089000038, 51.324473255000044 ], [ 6.106670010000072, 51.339576757000032 ], [ 6.114997104000054, 51.350302960000079 ], [ 6.141075646000046, 51.36483741100006 ], [ 6.134280206000027, 51.378426096000048 ], [ 6.123536128000069, 51.385948137000057 ], [ 6.135339361000034, 51.401879655000059 ], [ 6.137929922000068, 51.411924811000063 ], [ 6.144131836000042, 51.426037818000047 ], [ 6.144059050000067, 51.438831684000021 ], [ 6.147727029000065, 51.450632608000021 ], [ 6.174091173000021, 51.453193516000049 ], [ 6.171368125000071, 51.434525550000039 ], [ 6.168837040000027, 51.404845224000034 ], [ 6.170931316000065, 51.395440004000072 ], [ 6.176182813000024, 51.394812913000052 ], [ 6.184107437000023, 51.381841269000063 ], [ 6.183355501000051, 51.366630184000023 ], [ 6.173656333000054, 51.364553558000054 ], [ 6.16081586100006, 51.350621479000033 ], [ 6.150074992000042, 51.335594631000035 ], [ 6.141237880000062, 51.321933447000042 ], [ 6.121019429000056, 51.306100660000027 ], [ 6.078622846000029, 51.28677033300005 ], [ 6.055358387000068, 51.279348119000076 ], [ 6.042303369000024, 51.26124424000006 ], [ 6.033554274000039, 51.24965161700004 ], [ 6.028575663000026, 51.232744359000023 ], [ 6.011730789000068, 51.207000638000061 ] ] ] } }
]
}
