{
"type": "FeatureCollection",
"name": "aoi",
"crs": { "type": "name", "properties": { "name": "urn:ogc:def:crs:OGC:1.3:CRS84" } },
"features": [
{ "type": "Feature", "properties": { "emsr_id": "EMSR421", "glide_no": "Not Applicable", "area_id": "05", "locality": "RIVESALTES", "map_type": "Delineation" }, "geometry": { "type": "Polygon", "coordinates": [ [ [ 3.050931517000038, 42.636002289000032 ], [ 2.797902647000057, 42.636002289000032 ], [ 2.797568308000052, 42.650151365000056 ], [ 2.797902647000057, 42.820107249000039 ], [ 3.050931517000038, 42.820107249000039 ], [ 3.050931517000038, 42.636002289000032 ] ] ] } }
]
}
