{
"type": "FeatureCollection",
"name": "aoi",
"crs": { "type": "name", "properties": { "name": "urn:ogc:def:crs:OGC:1.3:CRS84" } },
"features": [
{ "type": "Feature", "properties": { "emsr_id": "EMSR502", "glide_no": "Not Applicable", "area_id": "01", "locality": "Clonmel", "map_type": "Delineation" }, "geometry": { "type": "Polygon", "coordinates": [ [ [ -7.490178610999976, 52.446028535000039 ], [ -7.492231124999932, 52.267307760000037 ], [ -7.941347213999962, 52.268384934000039 ], [ -7.941110113999969, 52.447112636000028 ], [ -7.490178610999976, 52.446028535000039 ] ] ] } }
]
}
