{
"type": "FeatureCollection",
"name": "aoi",
"crs": { "type": "name", "properties": { "name": "urn:ogc:def:crs:OGC:1.3:CRS84" } },
"features": [
{ "type": "Feature", "properties": { "name": "AOI6 -Pathein", "act_id": "EMSR130", "subtype": null }, "geometry": { "type": "Polygon", "coordinates": [ [ [ 95.117188334077454, 16.688605234006026 ], [ 94.593283564026009, 16.688605233669701 ], [ 94.593283474169397, 17.232912883457367 ], [ 95.117188334392608, 17.232912838162299 ], [ 95.117188334077454, 16.688605234006026 ] ] ] } },
{ "type": "Feature", "properties": { "name": "AOI6 -Pathein", "act_id": "EMSR130", "subtype": null }, "geometry": { "type": "Polygon", "coordinates": [ [ [ 95.117188334077454, 16.688605234006026 ], [ 94.593283564026009, 16.688605233669701 ], [ 94.593283474169397, 17.232912883457367 ], [ 95.117188334392608, 17.232912838162299 ], [ 95.117188334077454, 16.688605234006026 ] ] ] } }
]
}
