{
"type": "FeatureCollection",
"name": "aoi",
"crs": { "type": "name", "properties": { "name": "urn:ogc:def:crs:OGC:1.3:CRS84" } },
"features": [
{ "type": "Feature", "properties": { "emsr_id": "EMSR559", "glide_no": "ST-2022-000138-MDG", "area_id": "04", "locality": "Moramanga", "map_type": "Delineation" }, "geometry": { "type": "Polygon", "coordinates": [ [ [ 48.28336374600007, -18.987236285999931 ], [ 48.252297208000073, -19.023320302999927 ], [ 48.196567062000042, -19.016199415999946 ], [ 48.171253482000047, -18.984415507999927 ], [ 48.168571641000021, -18.897527991999944 ], [ 48.199852229000044, -18.864864892999954 ], [ 48.233722928000077, -18.874028314999983 ], [ 48.26522711400002, -18.888447812999978 ], [ 48.275875250000063, -18.923673581999932 ], [ 48.28336374600007, -18.987236285999931 ] ] ] } }
]
}
