{
"type": "FeatureCollection",
"name": "aoi",
"crs": { "type": "name", "properties": { "name": "urn:ogc:def:crs:OGC:1.3:CRS84" } },
"features": [
{ "type": "Feature", "properties": { "emsr_id": "EMSR555", "glide_no": "Not Applicable", "area_id": "01", "locality": "Zaragoza", "map_type": "Delineation" }, "geometry": { "type": "Polygon", "coordinates": [ [ [ -1.73704597699998, 43.346776267000045 ], [ -1.702218910999932, 43.296172310000024 ], [ -1.687061992999929, 43.296551760000057 ], [ -1.653357440999969, 43.25168191900007 ], [ -1.646676305999961, 43.209630156000053 ], [ -1.65196475099998, 43.140722492000066 ], [ -1.596500511999977, 43.152340221000024 ], [ -1.558176476999961, 43.150932524000041 ], [ -1.507962862999932, 43.159305832000022 ], [ -1.499154292999947, 43.187758559000024 ], [ -1.474395544999936, 43.18556205700002 ], [ -1.494905370999959, 43.142429914000047 ], [ -1.543566717999965, 43.127589538000052 ], [ -1.601373681999974, 43.129495426000055 ], [ -1.644690641999943, 43.123397029000046 ], [ -1.668011122999928, 43.11579335000004 ], [ -1.685076723999941, 43.103203648000033 ], [ -1.715096250999977, 43.094718715000049 ], [ -1.747120524999957, 43.090314096000043 ], [ -1.782092572999943, 43.08240058300003 ], [ -1.81701247899997, 43.07838898600005 ], [ -1.847483078999972, 43.081288714000031 ], [ -1.958259783999949, 43.08161513900005 ], [ -1.96093964399995, 43.034694931000047 ], [ -1.915055307999978, 43.018678746000028 ], [ -1.800691437999944, 43.013507943000036 ], [ -1.763628787999948, 42.909203072000018 ], [ -1.66853350599996, 42.89832847200006 ], [ -1.598846074999926, 42.913089700000057 ], [ -1.556344124999953, 42.974736917000023 ], [ -1.537257863999969, 42.973278146000048 ], [ -1.533864640999979, 42.983457815000058 ], [ -1.52472751099998, 43.01144027600003 ], [ -1.491605413999934, 43.033140961000065 ], [ -1.451059397999927, 43.033712032000032 ], [ -1.394523404999973, 43.028572396000065 ], [ -1.347695611999939, 43.020006336000037 ], [ -1.283735699999965, 42.996592440000022 ], [ -1.251184673999944, 42.960614989000071 ], [ -1.241476472999977, 42.914929338000029 ], [ -1.279738205999933, 42.877809746000018 ], [ -1.318571008999925, 42.873812252000043 ], [ -1.357974883999929, 42.884091523000045 ], [ -1.431642995999937, 42.87095689900007 ], [ -1.488515119999931, 42.89414322600004 ], [ -1.488455605999945, 42.891603502000059 ], [ -1.589507221999952, 42.80910591800005 ], [ -1.626324858999965, 42.687481950000048 ], [ -1.566049623999959, 42.625306835000053 ], [ -1.589662719999978, 42.566232750000033 ], [ -1.568755601999953, 42.456715396000043 ], [ -1.629061689999957, 42.406635487000067 ], [ -1.616460271999926, 42.364991171000035 ], [ -1.439054262999946, 42.403104712000065 ], [ -1.408938041999931, 42.308858025000056 ], [ -1.55963298599994, 42.31162757200007 ], [ -1.632347764999963, 42.206223799000036 ], [ -1.56263774699994, 42.161473686000079 ], [ -1.512464493999971, 42.036603061000051 ], [ -1.291818552999928, 41.945679403000042 ], [ -0.830474989999971, 41.679660470000044 ], [ -0.716749676999939, 41.647214120000044 ], [ -0.393362985999943, 41.433499328000039 ], [ -0.410055184999976, 41.389380482000035 ], [ -0.380440506999946, 41.312097652000027 ], [ -0.435267830999976, 41.309024980000046 ], [ -0.463045221999948, 41.355467848000039 ], [ -0.559388294999962, 41.375930464000078 ], [ -0.600142443999971, 41.457409953000074 ], [ -0.904617352999935, 41.606122193000026 ], [ -1.202641390999929, 41.741455221000081 ], [ -1.37087177799998, 41.878574601000018 ], [ -1.616287020999948, 41.990983888000066 ], [ -1.677136449999977, 42.11569874800005 ], [ -1.74123667899994, 42.092818120000061 ], [ -1.836794070999929, 42.048645390000033 ], [ -1.867593316999944, 42.07495347400004 ], [ -1.825409285999967, 42.203778526000065 ], [ -2.264187229999947, 42.389536440000029 ], [ -2.477759606999939, 42.439622226000033 ], [ -2.635345988999973, 42.452419944000034 ], [ -3.037312717999952, 42.632908101000055 ], [ -3.058093916999951, 42.731184043000034 ], [ -2.981453942999962, 42.801801194000056 ], [ -2.873886095999978, 42.807763385000037 ], [ -2.860690743999953, 42.81089193300005 ], [ -2.842019799999946, 42.822876391000079 ], [ -2.827425970999968, 42.833005512000049 ], [ -2.819427600999972, 42.844858865000049 ], [ -2.800343380999948, 42.858837233000031 ], [ -2.768587510999964, 42.880654989000035 ], [ -2.733610230999943, 42.901191810000057 ], [ -2.728539836999971, 42.902669050000036 ], [ -2.708257255999967, 42.908277927000022 ], [ -2.673673595999958, 42.921259278000029 ], [ -2.669263090999948, 42.936175383000034 ], [ -2.669185281999944, 42.950709155000027 ], [ -2.665957950999939, 42.955986775000042 ], [ -2.665196991999949, 42.959936530000043 ], [ -2.664972617999979, 42.963408010000073 ], [ -2.664335457999925, 42.967180203000048 ], [ -2.660802787999955, 42.974114051000065 ], [ -2.657908731999953, 42.97697371800006 ], [ -2.653132594999931, 42.985413213000065 ], [ -2.648601213999938, 42.98675804800007 ], [ -2.637928236999926, 42.983403624000061 ], [ -2.634457855999926, 42.979165660000028 ], [ -2.631207967999955, 42.972512905000023 ], [ -2.630243238999981, 42.970791408000018 ], [ -2.626123412999959, 42.963438674000024 ], [ -2.615284957999961, 42.954495974000046 ], [ -2.601568936999968, 42.946146107000061 ], [ -2.589299864999929, 42.937044971000034 ], [ -2.582588162999969, 42.934164728000042 ], [ -2.574898492999977, 42.93260265100001 ], [ -2.568005537999966, 42.930646920000072 ], [ -2.563732184999935, 42.929701490000063 ], [ -2.557127611999931, 42.928318032000035 ], [ -2.55071578999997, 42.927220865000031 ], [ -2.54275327199997, 42.925402368000043 ], [ -2.536066322999943, 42.922158916000051 ], [ -2.530148529999962, 42.919307856000039 ], [ -2.521519280999939, 42.916738122000019 ], [ -2.512877144999947, 42.915057660000059 ], [ -2.502626985999939, 42.912920827000043 ], [ -2.495121988999927, 42.909889025000034 ], [ -2.494808016999968, 42.909490360000056 ], [ -2.481076592999954, 42.904216931000057 ], [ -2.466139985999973, 42.898042749000055 ], [ -2.44954783299994, 42.896177197000043 ], [ -2.433354937999979, 42.895055790000072 ], [ -2.422399936999966, 42.89488915700008 ], [ -2.420268290999957, 42.894769532000048 ], [ -2.394696979999935, 42.891347806000056 ], [ -2.372033706999957, 42.889438760000075 ], [ -2.364101597999934, 42.888799317000064 ], [ -2.356871431999934, 42.887970356000039 ], [ -2.347248645999969, 42.887612922000066 ], [ -2.34263356799994, 42.887407817000053 ], [ -2.338344427999971, 42.887025713000057 ], [ -2.335972289999972, 42.886853279000029 ], [ -2.333892705999972, 42.88670206900008 ], [ -2.327751722999949, 42.885296158000074 ], [ -2.323788111999932, 42.884796288000068 ], [ -2.320315766999954, 42.883822670000022 ], [ -2.317086510999956, 42.882850398000073 ], [ -2.311997860999952, 42.881569046000031 ], [ -2.310205888999973, 42.881129688000044 ], [ -2.305676354999946, 42.882667935000029 ], [ -2.304820959999972, 42.883280236000068 ], [ -2.288068942999927, 42.897553149000025 ], [ -2.23996197799994, 42.921109538000046 ], [ -2.143221840999956, 42.905844901000066 ], [ -2.101791383999966, 42.918664200000073 ], [ -2.021443939999926, 42.945409711000018 ], [ -1.855361689999938, 42.953264067000063 ], [ -1.911930464999955, 42.977926379000046 ], [ -1.958284673999969, 42.987464612000053 ], [ -2.008833088999949, 43.009097394000023 ], [ -2.025062068999944, 43.034989567000011 ], [ -2.02777843399997, 43.065809669000025 ], [ -1.901505030999942, 43.144016577000052 ], [ -1.898437093999974, 43.224054770000059 ], [ -1.864382873999944, 43.22479642800004 ], [ -1.83847773399998, 43.209288888000053 ], [ -1.826280596999936, 43.165455424000065 ], [ -1.839138980999962, 43.134874365000023 ], [ -1.873310846999971, 43.138641644000067 ], [ -1.921691284999951, 43.097565005000028 ], [ -1.848539278999965, 43.101760966000022 ], [ -1.785159907999969, 43.118471101000068 ], [ -1.69474473799994, 43.153080465000073 ], [ -1.686941382999976, 43.20168225400004 ], [ -1.708348886999943, 43.236848925000047 ], [ -1.719974291999961, 43.257114813000037 ], [ -1.739015044999974, 43.277534359000065 ], [ -1.753071507999948, 43.315238837000031 ], [ -1.769008131999954, 43.340791114000062 ], [ -1.73704597699998, 43.346776267000045 ] ], [ [ -2.155478044999938, 42.471523320000067 ], [ -2.027127247999942, 42.431128258000058 ], [ -2.02689262399997, 42.433223427000023 ], [ -2.02372506699993, 42.450781579000072 ], [ -2.023056808999968, 42.468932790000061 ], [ -2.019255420999968, 42.489773543000062 ], [ -2.022221069999944, 42.497805032000031 ], [ -2.016534440999976, 42.51548422900003 ], [ -2.014008952999973, 42.528615418000065 ], [ -2.008569190999935, 42.542579136000015 ], [ -2.009351521999974, 42.56646112400005 ], [ -2.013405422999938, 42.579219985000066 ], [ -2.019753351999952, 42.593856867000049 ], [ -2.022324596999965, 42.61503754500005 ], [ -2.026105859999973, 42.633226151000024 ], [ -2.030790325999931, 42.643273321000038 ], [ -2.05357059499994, 42.647895661000049 ], [ -2.076531947999968, 42.640506005000077 ], [ -2.095376913999928, 42.636224499000029 ], [ -2.124248008999928, 42.634733285000031 ], [ -2.166123217999939, 42.630756834000053 ], [ -2.185489729999972, 42.630324310000042 ], [ -2.201316587999941, 42.634152813000064 ], [ -2.221198847999971, 42.639007519000067 ], [ -2.231951804999937, 42.646371279000043 ], [ -2.25974645499997, 42.654131345000046 ], [ -2.274258194999959, 42.655367912000024 ], [ -2.290544490999935, 42.653897333000032 ], [ -2.303917127999966, 42.653121589000072 ], [ -2.308791376999977, 42.652267179000035 ], [ -2.435205935999931, 42.642174161000064 ], [ -2.559008780999931, 42.637366396000054 ], [ -2.580058171999951, 42.646149978000039 ], [ -2.58320292999997, 42.666587375000056 ], [ -2.563341069999979, 42.676730332000034 ], [ -2.393837470999926, 42.688596240000031 ], [ -2.255229171999929, 42.702520928000062 ], [ -2.229600412999958, 42.696426939000041 ], [ -2.224207724999928, 42.692925129000059 ], [ -2.214586908999934, 42.687426977000015 ], [ -2.198173665999946, 42.682881407000011 ], [ -2.174359163999952, 42.681425558000058 ], [ -2.14358490099994, 42.67891219400007 ], [ -2.124223202999928, 42.677908017000043 ], [ -2.105637101999946, 42.676906626000054 ], [ -2.089813574999937, 42.685788624000054 ], [ -2.097179626999945, 42.698999457000063 ], [ -2.11046592699995, 42.718689207000061 ], [ -2.115003365999939, 42.726203645000055 ], [ -2.107766884999933, 42.750845028000064 ], [ -2.081312458999946, 42.760802735000013 ], [ -2.058609463999971, 42.75220591500004 ], [ -1.984827818999974, 42.685189277000056 ], [ -1.960855496999954, 42.662480031000023 ], [ -1.964420944999972, 42.644848979000074 ], [ -1.963276379999968, 42.615248634000061 ], [ -1.957727236999972, 42.59255278400007 ], [ -1.955368858999975, 42.574716785000078 ], [ -1.950939610999967, 42.558673398000046 ], [ -1.946217449999949, 42.523755638000068 ], [ -1.947840482999936, 42.487839108000053 ], [ -1.948979720999944, 42.468524997000024 ], [ -1.948824496999975, 42.45342621300005 ], [ -1.955241844999932, 42.410759144000053 ], [ -1.963172953999958, 42.394954044000038 ], [ -1.921528353999974, 42.366279414000076 ], [ -1.837997807999955, 42.324526413000051 ], [ -1.843387202999963, 42.36715093000003 ], [ -1.868646370999954, 42.42409025400007 ], [ -1.913854455999967, 42.56435328200007 ], [ -1.917944359999979, 42.689303801000044 ], [ -1.941065948999949, 42.826660996000037 ], [ -2.002419306999968, 42.833027343000019 ], [ -2.181817253999952, 42.840738943000076 ], [ -2.281667351999943, 42.841633374000018 ], [ -2.303925293999953, 42.858771098000027 ], [ -2.310331754999936, 42.85889412900007 ], [ -2.315880213999947, 42.857968733000071 ], [ -2.325097042999971, 42.856212622000037 ], [ -2.335612741999966, 42.854082088000034 ], [ -2.348467189999951, 42.851201470000035 ], [ -2.360937800999977, 42.847745429000035 ], [ -2.368091323999977, 42.84483064100003 ], [ -2.377577172999963, 42.841737494000014 ], [ -2.384980663999954, 42.839585455000076 ], [ -2.388095304999979, 42.838664530000067 ], [ -2.393482400999972, 42.838159142000045 ], [ -2.412099075999948, 42.838107327000046 ], [ -2.435743099999968, 42.841502444000064 ], [ -2.451686779999931, 42.846345222000018 ], [ -2.472089234999942, 42.850759674000066 ], [ -2.494487030999948, 42.859051130000068 ], [ -2.509847911999941, 42.861947321000052 ], [ -2.536134834999928, 42.865779733000061 ], [ -2.550909316999935, 42.866285385000026 ], [ -2.561880833999965, 42.866138016000029 ], [ -2.570621549999941, 42.851740664000026 ], [ -2.595723760999931, 42.826099273000061 ], [ -2.662629289999927, 42.804777551000022 ], [ -2.708742575999963, 42.804308453000026 ], [ -2.739084546999947, 42.802892431000025 ], [ -2.762557342999969, 42.799369482000039 ], [ -2.777937978999943, 42.796124149000029 ], [ -2.785048337999967, 42.794755453000043 ], [ -2.786675491999972, 42.751027084000043 ], [ -2.796884477999924, 42.668117800000047 ], [ -2.744943532999969, 42.618893249000045 ], [ -2.632914881999966, 42.563104621000036 ], [ -2.528830795999966, 42.551516803000027 ], [ -2.420018784999967, 42.538676292000048 ], [ -2.279681760999949, 42.517489566000044 ], [ -2.155478044999938, 42.471523320000067 ] ] ] } }
]
}
