{
"type": "FeatureCollection",
"name": "aoi",
"crs": { "type": "name", "properties": { "name": "urn:ogc:def:crs:OGC:1.3:CRS84" } },
"features": [
{ "type": "Feature", "properties": { "emsr_id": "EMSR470", "glide_no": "NA", "area_id": "01", "locality": "Oti River", "map_type": "Delineation" }, "geometry": { "type": "Polygon", "coordinates": [ [ [ 0.635744463000037, 10.204851014000036 ], [ 0.614057996000042, 10.110806797000059 ], [ 0.503314334000038, 10.130484609000066 ], [ 0.503350043000069, 10.04456121900005 ], [ 0.485943363000047, 9.89956973000004 ], [ 0.44593379600002, 9.903747568000021 ], [ 0.457231183000033, 9.778310270000071 ], [ 0.466455009000072, 9.624839688000069 ], [ 0.210707457000069, 9.650636876000018 ], [ 0.267198422000035, 9.82812637400002 ], [ 0.297319838000021, 9.919991862000071 ], [ 0.294813814000065, 10.203089883000072 ], [ 0.346153784000023, 10.328244938000061 ], [ 0.475388875000021, 10.523983137000071 ], [ 0.506221207000067, 10.570563093000032 ], [ 0.633882611000047, 10.704780952000018 ], [ 0.857001883000066, 11.041282566000055 ], [ 0.998209170000052, 10.963075711000036 ], [ 0.843086138000047, 10.654980696000052 ], [ 0.616255866000074, 10.43858088400003 ], [ 0.615215828000032, 10.331162723000034 ], [ 0.553133905000038, 10.253962804000031 ], [ 0.605537252000033, 10.243258887000017 ], [ 0.635744463000037, 10.204851014000036 ] ] ] } }
]
}
