{
"type": "FeatureCollection",
"name": "aoi",
"crs": { "type": "name", "properties": { "name": "urn:ogc:def:crs:OGC:1.3:CRS84" } },
"features": [
{ "type": "Feature", "properties": { "emsr_id": "EMSR562", "glide_no": "Not Applicable", "area_id": "13", "locality": "Burketown", "map_type": "Delineation" }, "geometry": { "type": "Polygon", "coordinates": [ [ [ 139.62573615300002, -17.644580289999965 ], [ 139.609442087000048, -17.767416660999974 ], [ 139.400924566000072, -17.765204014999934 ], [ 139.400924566000072, -17.643536829999963 ], [ 139.62573615300002, -17.644580289999965 ] ] ] } }
]
}
