{
"type": "FeatureCollection",
"name": "aoi",
"crs": { "type": "name", "properties": { "name": "urn:ogc:def:crs:OGC:1.3:CRS84" } },
"features": [
{ "type": "Feature", "properties": { "emsr_id": "EMSR561", "glide_no": "Not Applicable", "area_id": "01", "locality": "Chikwawa", "map_type": "Delineation" }, "geometry": { "type": "Polygon", "coordinates": [ [ [ 34.929662608000058, -16.101444450999971 ], [ 34.855558408000029, -16.176973730999975 ], [ 34.700937146000051, -15.978174964999939 ], [ 34.780741668000069, -15.919746653999944 ], [ 34.929662608000058, -16.101444450999971 ] ] ] } }
]
}
