{
"type": "FeatureCollection",
"name": "aoi",
"crs": { "type": "name", "properties": { "name": "urn:ogc:def:crs:OGC:1.3:CRS84" } },
"features": [
{ "type": "Feature", "properties": { "emsr_id": "EMSR498", "glide_no": "Not Applicable", "area_id": "01", "locality": "Argentat", "map_type": "Delineation" }, "geometry": { "type": "Polygon", "coordinates": [ [ [ 2.076481411000032, 45.173686463000081 ], [ 1.973458994000055, 45.094515412000085 ], [ 2.031276998000067, 45.101177592000042 ], [ 2.105896911000058, 45.087581470000025 ], [ 2.166593808000073, 45.096034468000013 ], [ 2.22272571600007, 45.10924954700004 ], [ 2.224779321000028, 45.068854676000051 ], [ 1.982359484000028, 45.02968910200007 ], [ 1.895148378000044, 44.985997478000058 ], [ 1.870398436000073, 44.936844109000035 ], [ 1.897476758000038, 44.921537684000043 ], [ 1.864676110000061, 44.879790402000019 ], [ 1.776811100000032, 44.881523107000071 ], [ 1.615235410000025, 44.883316134000033 ], [ 1.611382149000064, 45.02587850500003 ], [ 1.703290595000055, 45.027256935000025 ], [ 1.706628804000047, 44.972216507000041 ], [ 1.750071972000057, 44.941737161000042 ], [ 1.765470310000069, 44.939778866000033 ], [ 1.814479370000071, 44.95953416400004 ], [ 1.809946975000059, 44.997995101000058 ], [ 1.819296469000051, 45.02348419600002 ], [ 1.830004904000021, 45.053541435000049 ], [ 1.887079756000049, 45.071206311000026 ], [ 1.931605625000032, 45.124053826000086 ], [ 1.976182137000024, 45.168590099000028 ], [ 2.076481411000032, 45.173686463000081 ] ] ] } }
]
}
