{
"type": "FeatureCollection",
"name": "aoi",
"crs": { "type": "name", "properties": { "name": "urn:ogc:def:crs:OGC:1.3:CRS84" } },
"features": [
{ "type": "Feature", "properties": { "emsr_id": "EMSR492", "glide_no": "Not Applicable", "area_id": "01", "locality": "Mont-de-Marsan", "map_type": "Delineation" }, "geometry": { "type": "Polygon", "coordinates": [ [ [ -0.449281958999961, 43.975642461000056 ], [ -0.431952032999959, 43.857033712000025 ], [ -0.432906230999947, 43.857024066000065 ], [ -0.637444476999974, 43.859238534000042 ], [ -0.801894366999932, 43.781188961000048 ], [ -0.936485324999978, 43.71529155800004 ], [ -0.960138395999934, 43.648337567000048 ], [ -1.027976205999948, 43.66058211600005 ], [ -1.152814134999971, 43.607509875000062 ], [ -1.12428211699995, 43.498679429000049 ], [ -1.123374900999977, 43.495212865000042 ], [ -1.120376510999961, 43.483753018000066 ], [ -1.12093019699995, 43.483694645000071 ], [ -1.294661154999971, 43.457135478000048 ], [ -1.367431944999964, 43.504320113000055 ], [ -1.366594643999974, 43.525653870000035 ], [ -1.288887887999977, 43.526236524000062 ], [ -1.273331294999934, 43.671818754000064 ], [ -0.98038188399994, 43.777851274000049 ], [ -0.866992398999969, 43.883500139000027 ], [ -0.663036777999935, 43.951195973000033 ], [ -0.641546775999927, 43.958562958000073 ], [ -0.521323542999937, 43.969334482000079 ], [ -0.520806329999971, 43.969757670000043 ], [ -0.449281958999961, 43.975642461000056 ] ] ] } }
]
}
