{
"type": "FeatureCollection",
"name": "aoi",
"crs": { "type": "name", "properties": { "name": "urn:ogc:def:crs:OGC:1.3:CRS84" } },
"features": [
{ "type": "Feature", "properties": { "emsr_id": "EMSR417", "glide_no": "NA", "area_id": "01", "locality": "Coimbra", "map_type": "Delineation" }, "geometry": { "type": "Polygon", "coordinates": [ [ [ -8.274252405999958, 40.032052059000073 ], [ -8.880920221999927, 40.02509401300005 ], [ -8.884663190999959, 40.287045460000051 ], [ -8.28341932099994, 40.286742533000044 ], [ -8.274252405999958, 40.032052059000073 ] ] ] } }
]
}
