{
"type": "FeatureCollection",
"name": "aoi",
"crs": { "type": "name", "properties": { "name": "urn:ogc:def:crs:OGC:1.3:CRS84" } },
"features": [
{ "type": "Feature", "properties": { "emsr_id": "EMSR324", "glide_no": "Not Applicable", "area_id": "01", "locality": "Carcassonne", "map_type": "Delineation" }, "geometry": { "type": "Polygon", "coordinates": [ [ [ 2.515471218000073, 43.17012081200005 ], [ 2.268278835000046, 43.17012081200005 ], [ 2.268278835000046, 43.348640468000035 ], [ 2.515471218000073, 43.349639103000072 ], [ 2.515471218000073, 43.17012081200005 ] ] ] } }
]
}
