{
"type": "FeatureCollection",
"name": "aoi",
"crs": { "type": "name", "properties": { "name": "urn:ogc:def:crs:OGC:1.3:CRS84" } },
"features": [
{ "type": "Feature", "properties": { "emsr_id": "emsr277", "glide_no": "Not Applicable", "area_id": "01", "locality": "Orestiada", "map_type": "Delineation-Monit01" }, "geometry": { "type": "Polygon", "coordinates": [ [ [ 26.665327646000033, 41.496720968000034 ], [ 26.14666679000004, 41.496426303000078 ], [ 26.146575995000031, 41.814563864000036 ], [ 26.665240268000044, 41.814645820000067 ], [ 26.665327646000033, 41.496720968000034 ] ] ] } }
]
}
