{
"type": "FeatureCollection",
"name": "aoi",
"crs": { "type": "name", "properties": { "name": "urn:ogc:def:crs:OGC:1.3:CRS84" } },
"features": [
{ "type": "Feature", "properties": { "emsr_id": "EMSR496", "glide_no": "N/A", "area_id": "01", "locality": "Rieti", "map_type": "Delineation" }, "geometry": { "type": "Polygon", "coordinates": [ [ [ 12.857928935000073, 42.387484950000044 ], [ 12.836675494000076, 42.384548569000053 ], [ 12.814548666000064, 42.385739692000065 ], [ 12.794507098000054, 42.392164480000076 ], [ 12.785198048000039, 42.406760945000023 ], [ 12.77741841100004, 42.423450366000054 ], [ 12.769565899000041, 42.466564485000042 ], [ 12.760098578000054, 42.486559784000058 ], [ 12.782411826000041, 42.493381482000068 ], [ 12.803125155000032, 42.495673471000032 ], [ 12.815794270000024, 42.494495065000081 ], [ 12.842915981000031, 42.493232785000025 ], [ 12.853847103000021, 42.489573349000068 ], [ 12.869080398000049, 42.478316761000031 ], [ 12.859985852000021, 42.465017323000033 ], [ 12.856025840000028, 42.446843180000023 ], [ 12.855400664000058, 42.432859704000059 ], [ 12.856847482000035, 42.421684150000026 ], [ 12.858505148000063, 42.415173656000036 ], [ 12.880901766000022, 42.404123752000032 ], [ 12.885269578000075, 42.39992341400005 ], [ 12.874501916000041, 42.393747306000073 ], [ 12.857928935000073, 42.387484950000044 ] ] ] } }
]
}
