{
"type": "FeatureCollection",
"name": "aoi",
"crs": { "type": "name", "properties": { "name": "urn:ogc:def:crs:OGC:1.3:CRS84" } },
"features": [
{ "type": "Feature", "properties": { "emsr_id": "EMSR427", "glide_no": "Not Applicable", "area_id": "03", "locality": "SKARABORG", "map_type": "Delineation-Monit03" }, "geometry": { "type": "Polygon", "coordinates": [ [ [ 14.073862456000027, 58.131566213000049 ], [ 13.786815194000042, 57.91787615500003 ], [ 13.195408755000072, 58.042456438000031 ], [ 13.170622135000031, 58.176954528000053 ], [ 13.321077733000038, 58.392417691000055 ], [ 13.041505706000066, 58.498496456000041 ], [ 13.097519731000034, 58.567438487000061 ], [ 13.705862614000067, 58.808507489000071 ], [ 14.333228279000025, 58.500108078000046 ], [ 14.073862456000027, 58.131566213000049 ] ] ] } }
]
}
