{
"type": "FeatureCollection",
"name": "aoi",
"crs": { "type": "name", "properties": { "name": "urn:ogc:def:crs:OGC:1.3:CRS84" } },
"features": [
{ "type": "Feature", "properties": { "emsr_id": "EMSR275", "glide_no": null, "area_id": "01", "locality": "Lijevi-Dobrovcak", "map_type": "Delineation" }, "geometry": { "type": "Polygon", "coordinates": [ [ [ 16.617144761000077, 45.426096052000034 ], [ 16.13581533100006, 45.426096052000034 ], [ 16.13581533100006, 45.70244783000004 ], [ 16.617144761000077, 45.70244783000004 ], [ 16.617144761000077, 45.426096052000034 ] ] ] } }
]
}
