{
"type": "FeatureCollection",
"name": "aoi",
"crs": { "type": "name", "properties": { "name": "urn:ogc:def:crs:OGC:1.3:CRS84" } },
"features": [
{ "type": "Feature", "properties": { "FID": 0 }, "geometry": { "type": "Polygon", "coordinates": [ [ [ 84.938049, 25.598187 ], [ 84.986115, 25.877759 ], [ 84.999457, 25.953722 ], [ 85.182137, 25.940114 ], [ 85.259966, 25.858433 ], [ 85.280504, 25.77183 ], [ 85.296718, 25.681266 ], [ 85.595061, 25.706592 ], [ 85.693427, 25.652037 ], [ 85.936641, 25.625725 ], [ 86.022036, 25.509689 ], [ 86.15175, 25.469683 ], [ 86.319297, 25.410139 ], [ 86.312812, 25.360334 ], [ 86.279302, 25.248929 ], [ 86.24255, 25.153079 ], [ 86.169045, 25.134487 ], [ 86.086893, 25.13253 ], [ 85.985284, 25.158949 ], [ 85.895565, 25.227418 ], [ 85.815574, 25.391586 ], [ 85.725856, 25.365217 ], [ 85.565875, 25.382797 ], [ 85.280504, 25.405257 ], [ 85.071881, 25.484321 ], [ 84.938049, 25.598187 ] ] ] } }
]
}
