{
"type": "FeatureCollection",
"name": "aoi",
"crs": { "type": "name", "properties": { "name": "urn:ogc:def:crs:OGC:1.3:CRS84" } },
"features": [
{ "type": "Feature", "properties": { "FID": 0 }, "geometry": { "type": "Polygon", "coordinates": [ [ [ 43.128891, 11.626008 ], [ 43.157215, 11.624999 ], [ 43.169918, 11.599441 ], [ 43.182964, 11.56648 ], [ 43.197041, 11.529311 ], [ 43.197556, 11.509463 ], [ 43.178844, 11.507781 ], [ 43.172493, 11.506267 ], [ 43.154984, 11.514173 ], [ 43.141251, 11.524265 ], [ 43.129063, 11.543944 ], [ 43.121338, 11.562612 ], [ 43.114643, 11.578925 ], [ 43.115158, 11.591033 ], [ 43.128891, 11.626008 ] ] ] } }
]
}
