{
"type": "FeatureCollection",
"name": "aoi",
"crs": { "type": "name", "properties": { "name": "urn:ogc:def:crs:OGC:1.3:CRS84" } },
"features": [
{ "type": "Feature", "properties": { "FID": 0 }, "geometry": { "type": "Polygon", "coordinates": [ [ [ 69.260559, 28.321307 ], [ 69.656067, 28.248747 ], [ 69.120483, 27.739454 ], [ 68.615112, 27.530194 ], [ 68.406372, 27.318095 ], [ 68.068542, 26.546766 ], [ 68.087769, 26.293415 ], [ 68.447571, 25.888879 ], [ 68.524475, 25.626669 ], [ 68.326721, 25.557309 ], [ 67.961426, 26.128316 ], [ 67.752686, 26.20227 ], [ 67.5, 26.448443 ], [ 67.398376, 28.081674 ], [ 67.93396, 28.618282 ], [ 68.661804, 28.625514 ], [ 68.939209, 28.446959 ], [ 69.260559, 28.321307 ] ] ] } }
]
}
