{
"type": "FeatureCollection",
"name": "aoi",
"crs": { "type": "name", "properties": { "name": "urn:ogc:def:crs:OGC:1.3:CRS84" } },
"features": [
{ "type": "Feature", "properties": { "FID": 0 }, "geometry": { "type": "Polygon", "coordinates": [ [ [ -91.400757, 38.779781 ], [ -91.010742, 39.087436 ], [ -90.582275, 39.053318 ], [ -90.20874, 39.053318 ], [ -89.280396, 38.496594 ], [ -90.142822, 38.345964 ], [ -89.835205, 38.022131 ], [ -89.555054, 37.861844 ], [ -89.3573, 37.740313 ], [ -89.318848, 37.583766 ], [ -89.34082, 37.278424 ], [ -89.505615, 37.247821 ], [ -89.620972, 37.361426 ], [ -89.763794, 37.631635 ], [ -90.043945, 37.857507 ], [ -90.346069, 38.069717 ], [ -90.505371, 38.367502 ], [ -90.461426, 38.672645 ], [ -90.977783, 38.492294 ], [ -91.433716, 38.638327 ], [ -91.400757, 38.779781 ] ] ] } }
]
}
