{
"type": "FeatureCollection",
"name": "aoi",
"crs": { "type": "name", "properties": { "name": "urn:ogc:def:crs:OGC:1.3:CRS84" } },
"features": [
{ "type": "Feature", "properties": { "FID": 0 }, "geometry": { "type": "Polygon", "coordinates": [ [ [ 48.58429, -17.28902 ], [ 48.654327, -17.408305 ], [ 48.589783, -17.460713 ], [ 48.556824, -17.61392 ], [ 48.449707, -17.800996 ], [ 48.273926, -17.909489 ], [ 48.107758, -17.942155 ], [ 48.106384, -17.817993 ], [ 48.203888, -17.585121 ], [ 48.305511, -17.359814 ], [ 48.390656, -17.333597 ], [ 48.58429, -17.28902 ] ] ] } }
]
}
