{
"type": "FeatureCollection",
"name": "aoi",
"crs": { "type": "name", "properties": { "name": "urn:ogc:def:crs:OGC:1.3:CRS84" } },
"features": [
{ "type": "Feature", "properties": { "FID": 0 }, "geometry": { "type": "Polygon", "coordinates": [ [ [ 121.415405, 18.445741 ], [ 121.832886, 18.252828 ], [ 121.734009, 18.158901 ], [ 121.775208, 17.923863 ], [ 121.80542, 17.672811 ], [ 121.860352, 17.35326 ], [ 122.000427, 17.064662 ], [ 121.887817, 17.07779 ], [ 121.898804, 16.838719 ], [ 121.783447, 16.828203 ], [ 121.70105, 16.975368 ], [ 121.723022, 17.122417 ], [ 121.679077, 17.269351 ], [ 121.613159, 17.609993 ], [ 121.577454, 17.785305 ], [ 121.533508, 18.002244 ], [ 121.456604, 18.153682 ], [ 121.415405, 18.445741 ] ] ] } }
]
}
