{
"type": "FeatureCollection",
"name": "aoi",
"crs": { "type": "name", "properties": { "name": "urn:ogc:def:crs:OGC:1.3:CRS84" } },
"features": [
{ "type": "Feature", "properties": { "FID": 0 }, "geometry": { "type": "Polygon", "coordinates": [ [ [ -97.292175, 29.683281 ], [ -96.937866, 29.759609 ], [ -97.012024, 30.019165 ], [ -96.089172, 29.671349 ], [ -95.526123, 28.791732 ], [ -96.446228, 28.41556 ], [ -96.932373, 28.248747 ], [ -97.190552, 28.408313 ], [ -97.407532, 28.988922 ], [ -97.487183, 29.34627 ], [ -97.292175, 29.683281 ] ] ] } }
]
}
