{
"type": "FeatureCollection",
"name": "aoi",
"crs": { "type": "name", "properties": { "name": "urn:ogc:def:crs:OGC:1.3:CRS84" } },
"features": [
{ "type": "Feature", "properties": { "FID": 0 }, "geometry": { "type": "Polygon", "coordinates": [ [ [ -83.61248, 14.178188 ], [ -83.554459, 14.183513 ], [ -83.51429, 14.182848 ], [ -83.49369, 14.151557 ], [ -83.476181, 14.074976 ], [ -83.454895, 14.050998 ], [ -83.434296, 14.01769 ], [ -83.438072, 13.977715 ], [ -83.521156, 13.988042 ], [ -83.527336, 14.015025 ], [ -83.541412, 14.069981 ], [ -83.555145, 14.102282 ], [ -83.587074, 14.103281 ], [ -83.61248, 14.178188 ] ] ] } }
]
}
